{
  "name": "SATGUS",
  "line1": "1 62713U 25009DJ  26182.19391024  .00009220  00000+0  71924-3 0  9991",
  "line2": "2 62713  97.6883 263.4330 0007214  87.5823 272.6227 15.01360827 79669",
  "fetched_at": "2026-07-02T00:46:09.145294+00:00"
}